PROGRESS-MS 13          
1 44833U 19085A   20062.55125000  .00001273  00000-0  31086-4 0  9998
2 44833  51.6430 156.0909 0005438 339.4272 204.4627 15.49211601 13495
STPSAT-4                
1 45043U 98067QY  20062.58094247  .00001270  00000-0  30900-4 0  9991
2 45043  51.6445 155.9139 0005222 338.2718  21.8057 15.49336126  5254
CYGNUS NG-13            
1 45175U 20011A   20062.55125000  .00001273  00000-0  31086-4 0  9999
2 45175  51.6430 156.0909 0005438 339.4272 204.4627 15.49211601  2437
ANTARES DEB             
1 45176U 20011B   20047.76166641 -.00003896  12318-4  00000-0 0  9993
2 45176  51.6205 229.3912 0033290  21.1916  54.0592 16.36693095   158
ARGUS-02                
1 45256U 98067QZ  20063.48074566  .00005170  00000-0  98835-4 0  9993
2 45256  51.6417 151.4378 0007824 330.9965  29.0588 15.49892821  2062
AZTECHSAT-1             
1 45257U 98067RA  20063.48001770  .00004368  00000-0  84553-4 0  9991
2 45257  51.6419 151.4330 0008440 332.9323  27.1225 15.49965429  2060
CRYOCUBE                
1 45258U 98067RB  20063.48017630  .00003409  00000-0  67873-4 0  9995
2 45258  51.6415 151.4332 0006219 314.9235  45.1249 15.49925882  2035
HARP                    
1 45259U 98067RC  20062.83582060  .00006409  00000-0  12050-3 0  9997
2 45259  51.6414 154.6303 0007820 328.4446  31.6073 15.49912728  1962
PHOENIX                 
1 45260U 98067RD  20062.83448428  .00006495  00000-0  12130-3 0  9992
2 45260  51.6414 154.6214 0008589 327.1540  32.8914 15.50075292  1975
QARMAN                  
1 45261U 98067RE  20062.83456365  .00007392  00000-0  13691-3 0  9992
2 45261  51.6413 154.6218 0008480 327.5260  32.5207 15.50079438  1969
RADSAT-U                
1 45262U 98067RF  20063.47959266  .00004353  00000-0  84207-4 0  9998
2 45262  51.6419 151.4305 0007525   6.4662 353.6423 15.50001289  2075
SOCRATES                
1 45263U 98067RG  20062.77144678  .00003114  00000-0  62843-4 0  9990
2 45263  51.6421 154.9503 0007756 325.6730  34.3756 15.49850067  1980
SORTIE                  
1 45264U 98067RH  20062.83676850  .00003357  00000-0  67333-4 0  9998
2 45264  51.6417 154.6369 0007807 336.7252  23.3382 15.49758059  1961
ICS-EF                  
1 45265U 98067RJ  20062.71158193  .00001992  00000-0  43962-4 0  9996
2 45265  51.6420 155.3002 0005507 338.7273  21.3485 15.49258812  1625
